{"type":"FeatureCollection","features":[{"id":0,"type":"Feature","properties":{"DPTO_CCDGO":"18","DPTO_CNMBR":"CAQUETÁ","DPTO_NANO_":1981,"DPTO_CACTO":"Ley 78 del 29 de Diciembre de 1981","DPTO_NANO":2018,"Shape_Leng":21.3842867432,"Shape_Area":7.3184846917},"geometry":{"type":"Polygon","coordinates":[[[-73.65989384324841,1.612099556658622],[-73.6586696918745,1.5761549420575385],[-73.47627113716038,1.3617267239200386],[-73.41383941709046,1.245216593833768],[-73.39302884373382,1.1472985057825396],[-73.32202806404644,1.0803671544563844],[-73.07842194063632,0.8944467341059514],[-73.04536985354048,0.9056019593269768],[-72.85685054195676,1.0431830703862977],[-72.87031620706989,1.1460590363135372],[-72.79809127600859,1.1758063035696065],[-72.65119311113817,1.1720878951625977],[-72.5079674003895,1.067972459766355],[-72.46757040505014,1.0840855628633923],[-72.39901792811061,1.002280577909202],[-72.26925788247507,0.763062970391645],[-72.08073857089136,0.7048079053485097],[-72.03299666730847,0.6639054128714141],[-71.98158230960382,0.6292002677393338],[-71.99015136922127,0.5659873248201865],[-71.92894380052525,0.5436768743781348],[-71.92159889228174,0.4593929504859382],[-71.85671886946396,0.45567454207892943],[-71.83223584198555,0.3391644119926589],[-71.76980412191563,0.3280091867716326],[-71.69757919085433,0.23752791553442165],[-71.62657841116696,0.21645693456137316],[-71.58373311307976,0.163159747394249],[-71.44907646194854,0.13960982748319406],[-71.3744032281394,0.1743149726152744],[-71.29728169158243,0.07515741509504359],[-71.25443639349523,0.059044311998006194],[-71.2715745127301,0.035494392086951265],[-71.47478364080087,-0.011605447735157703],[-71.54945687460999,0.021860227927920306],[-71.70492409909785,-0.06738157384028742],[-71.73675203481977,-0.16406019242251269],[-71.71104485596746,-0.23223101321767148],[-71.78939054389835,-0.27065456675676103],[-72.01953100219535,-0.2632177499427435],[-72.06237630028255,-0.325191223392888],[-72.14317029096128,-0.3475016738349397],[-72.18356728630066,-0.46153286498320556],[-72.23008503850963,-0.4925196017082776],[-72.24232655224883,-0.6053113233875402],[-72.31699978605795,-0.6524111632096496],[-72.43329416658037,-0.5668877698484507],[-72.5385711847375,-0.6772005525897073],[-72.59243384519,-0.6933136556867447],[-72.74545276693003,-0.5606904225034364],[-72.8776611153134,-0.6177060180775689],[-72.95600680324429,-0.5631693614414419],[-73.04414570216656,-0.5346615636543754],[-73.11269817910609,-0.604071853918537],[-73.20940613764579,-0.6239033654225832],[-73.33549372915957,-0.5061537658673094],[-73.4885126508996,-0.5284642163093611],[-73.57053079295224,-0.5160695216193325],[-73.5803240039436,-0.4553355176381908],[-73.6770319624833,-0.42186984197511324],[-73.8410682465886,-0.3983199220640583],[-73.9989837738243,-0.34378326542793136],[-74.10915739747713,-0.23594942162468024],[-74.15689930106002,-0.26073881100473795],[-74.29033180081731,-0.1975258680855907],[-74.35153936951333,-0.10704459684837975],[-74.43967826843559,-0.07481839065430496],[-74.54128283247096,-0.1206787610074116],[-74.70409496520234,0.03673386155595448],[-74.66247381848906,0.0540864341219951],[-74.67838778635003,0.16068080845624344],[-74.7371470522982,0.20902011774735563],[-74.84487237320317,0.21397799562336672],[-74.89261427678606,0.24868314075544795],[-74.96483920784735,0.24496473234843918],[-75.03339168478688,0.48418233986599635],[-75.19620381751827,0.47922446198998436],[-75.23537666148371,0.5659873248201865],[-75.20722117988355,0.6019319394212701],[-75.25741138621427,0.7023289664105041],[-75.33820537689301,0.7680208482676569],[-75.42267182169351,0.7382735810115877],[-75.53896620221593,0.7903312987097086],[-75.63689831212955,0.8770941615399108],[-75.75808929814764,0.8374311385318185],[-75.8951942520267,0.9353492265830461],[-75.97598824270544,1.0617751124213406],[-76.08493771498433,1.0580567040143318],[-76.15226604054995,1.1088749522434505],[-76.28080193481156,1.1373827500305165],[-76.30283665954212,1.2365403075507473],[-76.20368039825459,1.3530504376370187],[-76.16940415978483,1.588549636747567],[-76.12411055894978,1.5662391863055154],[-76.03474750865361,1.5823522894025528],[-75.90376331164414,1.716214992054864],[-75.84745234844381,1.7224123393998783],[-75.73483042204316,1.7868647517880287],[-75.6589330368601,1.8922196566532739],[-75.6160877387729,1.9963350920495166],[-75.53529374809416,2.117803100011799],[-75.44470654642407,2.1438319588608596],[-75.3859472804759,2.3148787455832576],[-75.31004989529285,2.3619785854053674],[-75.28679101918836,2.4103178946964796],[-75.13254794607442,2.5962383150469126],[-75.14723776256146,2.722664200885207],[-75.07011622600449,2.744974651327259],[-74.89873503365565,2.96436074734077],[-74.87914861167293,2.913542499111651],[-74.80325122648989,2.935852949553704],[-74.7616300797766,2.8726400066345565],[-74.6710428781065,2.8875136402625907],[-74.63676663963673,2.7102695061951785],[-74.58902473605384,2.6619301969040654],[-74.68083608909787,2.5540963531008147],[-74.67226702948042,2.4487414482355696],[-74.74204365779387,2.3235550318662783],[-74.74326780916779,2.270257844699154],[-74.65023230474986,2.2429895163810905],[-74.59392134154953,2.13515567257784],[-74.64411154788026,2.0954926495697475],[-74.56086925445368,1.9628694163864386],[-74.56331755720153,1.8475987557691704],[-74.47028205278359,1.8066962632920749],[-74.32215973653925,1.788104221257032],[-74.20708950739075,1.716214992054864],[-74.10548494335536,1.6914256026748067],[-73.99408716832863,1.6393678849766857],[-73.85820636582349,1.6083811482516133],[-73.73946368255324,1.6381284155076825],[-73.65989384324841,1.612099556658622]]]}}]}