{
  "type": "FeatureCollection",
  "features": [
    {
      "id": 0,
      "type": "Feature",
      "properties": {
        "DPTO_CCDGO": "18",
        "MPIO_CCDGO": "001",
        "MPIO_CNMBR": "FLORENCIA",
        "MPIO_CRSLC": "Decreto 642 de Junio 17 de 1912",
        "MPIO_NAREA": 2547.63753226,
        "MPIO_CCNCT": "18001",
        "MPIO_NANO": 2018,
        "DPTO_CNMBR": "CAQUETÁ",
        "Shape_Leng": 2.94250780494,
        "Shape_Area": 0.206927769124,
        "codigoDANE": "18001",
        "nombre": "Florencia",
        "name": "Florencia",
        "subregion": "Centro",
        "departamento": "Caquetá",
        "isCapital": true
      },
      "geometry": {
        "type": "Polygon",
        "coordinates": [
          [
            [
              -75.40430955108471,
              1.7695121792219881
            ],
            [
              -75.47898278489383,
              1.6046627398446045
            ],
            [
              -75.45939636291111,
              1.444771178343232
            ],
            [
              -75.47898278489383,
              1.3431346818849956
            ],
            [
              -75.56834583519002,
              1.3220637009119462
            ],
            [
              -75.5916047112945,
              1.3914739911761078
            ],
            [
              -75.66627794510363,
              1.4943499571033474
            ],
            [
              -75.72993381654747,
              1.4980683655103562
            ],
            [
              -75.77889987150428,
              1.5823522894025528
            ],
            [
              -75.80460705035661,
              1.6158179650656308
            ],
            [
              -75.75808929814764,
              1.6777914385157748
            ],
            [
              -75.7862447797478,
              1.7633148318769738
            ],
            [
              -75.73483042204316,
              1.7868647517880287
            ],
            [
              -75.68831266983419,
              1.8810644314322476
            ],
            [
              -75.6589330368601,
              1.8922196566532739
            ],
            [
              -75.58793225717274,
              2.0136876646155564
            ],
            [
              -75.53529374809416,
              2.117803100011799
            ],
            [
              -75.44470654642407,
              2.1438319588608596
            ],
            [
              -75.42634427581527,
              2.1946502070899783
            ],
            [
              -75.38349897772805,
              2.1227609778878103
            ],
            [
              -75.3920680373455,
              1.9950956225805134
            ],
            [
              -75.3492227392583,
              1.9752641110764673
            ],
            [
              -75.3553434961279,
              1.8661907978042134
            ],
            [
              -75.40430955108471,
              1.7695121792219881
            ]
          ]
        ]
      }
    },
    {
      "id": 1,
      "type": "Feature",
      "properties": {
        "DPTO_CCDGO": "18",
        "MPIO_CCDGO": "029",
        "MPIO_CNMBR": "ALBANIA",
        "MPIO_CRSLC": "Ordenanza 3 de Noviembre 12 de 1985",
        "MPIO_NAREA": 414.122070187,
        "MPIO_CCNCT": "18029",
        "MPIO_NANO": 2018,
        "DPTO_CNMBR": "CAQUETÁ",
        "Shape_Leng": 1.11282888758,
        "Shape_Area": 0.0336175761395,
        "codigoDANE": "18029",
        "nombre": "Albania",
        "name": "Albania",
        "subregion": "Sur",
        "departamento": "Caquetá",
        "isCapital": false
      },
      "geometry": {
        "type": "Polygon",
        "coordinates": [
          [
            [
              -75.75686514677372,
              1.1894404677286383
            ],
            [
              -75.81072780722621,
              1.1720878951625977
            ],
            [
              -75.81440026134797,
              1.111353891181456
            ],
            [
              -75.92212558225295,
              1.1076354827744472
            ],
            [
              -75.9551776693488,
              1.1820036509146208
            ],
            [
              -75.99435051331425,
              1.2476955327717736
            ],
            [
              -75.90621161439199,
              1.359247784982033
            ],
            [
              -75.85357310531342,
              1.34065574294699
            ],
            [
              -75.7862447797478,
              1.206793040294678
            ],
            [
              -75.75686514677372,
              1.1894404677286383
            ]
          ]
        ]
      }
    },
    {
      "id": 2,
      "type": "Feature",
      "properties": {
        "DPTO_CCDGO": "18",
        "MPIO_CCDGO": "094",
        "MPIO_CNMBR": "BELÉN DE LOS ANDAQUÍES",
        "MPIO_CRSLC": "Decreto 963 de Marzo 14 de 1950",
        "MPIO_NAREA": 1191.61857163,
        "MPIO_CCNCT": "18094",
        "MPIO_NANO": 2018,
        "DPTO_CNMBR": "CAQUETÁ",
        "Shape_Leng": 2.23465674218,
        "Shape_Area": 0.0967446036811,
        "codigoDANE": "18094",
        "nombre": "Belén de los Andaquíes",
        "name": "Belén de los Andaquíes",
        "subregion": "Sur",
        "departamento": "Caquetá",
        "isCapital": false
      },
      "geometry": {
        "type": "Polygon",
        "coordinates": [
          [
            [
              -75.77889987150428,
              1.5823522894025528
            ],
            [
              -75.77767572013036,
              1.4559264035642583
            ],
            [
              -75.737278724791,
              1.4175028500251692
            ],
            [
              -75.74217533028667,
              1.3233031703809495
            ],
            [
              -75.75686514677372,
              1.1894404677286383
            ],
            [
              -75.7862447797478,
              1.206793040294678
            ],
            [
              -75.85357310531342,
              1.34065574294699
            ],
            [
              -75.90621161439199,
              1.359247784982033
            ],
            [
              -75.99557466468816,
              1.421221258432177
            ],
            [
              -76.02740260041008,
              1.5290551022354286
            ],
            [
              -76.09962753147138,
              1.563760247367509
            ],
            [
              -75.98333315094895,
              1.6220153124106451
            ],
            [
              -75.90376331164414,
              1.716214992054864
            ],
            [
              -75.83765913745245,
              1.7397649119659189
            ],
            [
              -75.7862447797478,
              1.7633148318769738
            ],
            [
              -75.75808929814764,
              1.6777914385157748
            ],
            [
              -75.80460705035661,
              1.6158179650656308
            ],
            [
              -75.77889987150428,
              1.5823522894025528
            ]
          ]
        ]
      }
    },
    {
      "id": 3,
      "type": "Feature",
      "properties": {
        "DPTO_CCDGO": "18",
        "MPIO_CCDGO": "247",
        "MPIO_CNMBR": "EL DONCELLO",
        "MPIO_CRSLC": "Decreto 1678 de Septiembre 7 de 1967",
        "MPIO_NAREA": 1106.0761511,
        "MPIO_CCNCT": "18247",
        "MPIO_NANO": 2018,
        "DPTO_CNMBR": "CAQUETÁ",
        "Shape_Leng": 3.15437031984,
        "Shape_Area": 0.0898674383534,
        "codigoDANE": "18247",
        "nombre": "El Doncello",
        "name": "El Doncello",
        "subregion": "Norte",
        "departamento": "Caquetá",
        "isCapital": false
      },
      "geometry": {
        "type": "Polygon",
        "coordinates": [
          [
            [
              -75.3492227392583,
              2.3235550318662783
            ],
            [
              -75.28679101918836,
              2.2714973141681565
            ],
            [
              -75.25741138621427,
              2.1376346115158453
            ],
            [
              -75.29780838155365,
              2.054590157092652
            ],
            [
              -75.31494650078852,
              1.801738385416063
            ],
            [
              -75.26108384033604,
              1.7943015686020463
            ],
            [
              -75.17784154690946,
              1.7100176447098496
            ],
            [
              -75.05420225814352,
              1.7323280951519013
            ],
            [
              -75.0223743224216,
              1.6468047017907024
            ],
            [
              -74.93301127212543,
              1.5042657128553705
            ],
            [
              -74.92933881800366,
              1.4249396668391858
            ],
            [
              -74.96483920784735,
              1.4435317088742297
            ],
            [
              -75.03828829028257,
              1.4819552624133188
            ],
            [
              -75.07501283150017,
              1.545168205332466
            ],
            [
              -75.33086046864949,
              1.659199396480732
            ],
            [
              -75.3614642529975,
              1.7484411982489396
            ],
            [
              -75.31004989529285,
              1.9145301070953256
            ],
            [
              -75.3859472804759,
              2.3148787455832576
            ],
            [
              -75.3492227392583,
              2.3235550318662783
            ]
          ]
        ]
      }
    },
    {
      "id": 4,
      "type": "Feature",
      "properties": {
        "DPTO_CCDGO": "18",
        "MPIO_CCDGO": "256",
        "MPIO_CNMBR": "EL PAUJÍL",
        "MPIO_CRSLC": "Decreto 1678 de Septiembret 7 de 1967",
        "MPIO_NAREA": 1234.73414492,
        "MPIO_CCNCT": "18256",
        "MPIO_NANO": 2018,
        "DPTO_CNMBR": "CAQUETÁ",
        "Shape_Leng": 3.52931590853,
        "Shape_Area": 0.100309283037,
        "codigoDANE": "18256",
        "nombre": "El Paujil",
        "name": "El Paujil",
        "subregion": "Norte",
        "departamento": "Caquetá",
        "isCapital": false
      },
      "geometry": {
        "type": "Polygon",
        "coordinates": [
          [
            [
              -74.96483920784735,
              1.4435317088742297
            ],
            [
              -75.05665056089137,
              1.3877555827691
            ],
            [
              -75.08113358836977,
              1.273724391620834
            ],
            [
              -75.11785812958738,
              1.34065574294699
            ],
            [
              -75.21334193675315,
              1.3443741513539988
            ],
            [
              -75.26230799170996,
              1.4237001973701835
            ],
            [
              -75.32841216590165,
              1.483194731882322
            ],
            [
              -75.36880916124102,
              1.5662391863055154
            ],
            [
              -75.33942952826693,
              1.6616783354187374
            ],
            [
              -75.40430955108471,
              1.7695121792219881
            ],
            [
              -75.3553434961279,
              1.8661907978042134
            ],
            [
              -75.3492227392583,
              1.9752641110764673
            ],
            [
              -75.3920680373455,
              1.9950956225805134
            ],
            [
              -75.38349897772805,
              2.1227609778878103
            ],
            [
              -75.42634427581527,
              2.1946502070899783
            ],
            [
              -75.39451634009335,
              2.302484050893229
            ],
            [
              -75.3859472804759,
              2.3148787455832576
            ],
            [
              -75.31004989529285,
              1.9145301070953256
            ],
            [
              -75.3614642529975,
              1.7484411982489396
            ],
            [
              -75.33086046864949,
              1.659199396480732
            ],
            [
              -75.07501283150017,
              1.545168205332466
            ],
            [
              -75.03828829028257,
              1.4819552624133188
            ],
            [
              -74.96483920784735,
              1.4435317088742297
            ]
          ]
        ]
      }
    },
    {
      "id": 5,
      "type": "Feature",
      "properties": {
        "DPTO_CCDGO": "18",
        "MPIO_CCDGO": "410",
        "MPIO_CNMBR": "LA MONTAÑITA",
        "MPIO_CRSLC": "Decreto 83 de Julio 6 de 1955",
        "MPIO_NAREA": 1701.06142971,
        "MPIO_CCNCT": "18410",
        "MPIO_NANO": 2018,
        "DPTO_CNMBR": "CAQUETÁ",
        "Shape_Leng": 3.40293900106,
        "Shape_Area": 0.138173507871,
        "codigoDANE": "18410",
        "nombre": "La Montañita",
        "name": "La Montañita",
        "subregion": "Centro",
        "departamento": "Caquetá",
        "isCapital": false
      },
      "geometry": {
        "type": "Polygon",
        "coordinates": [
          [
            [
              -75.08113358836977,
              1.273724391620834
            ],
            [
              -74.95749429960382,
              1.1001986659604306
            ],
            [
              -74.89995918502959,
              0.9762517190601416
            ],
            [
              -75.19497966614435,
              1.0419436009172944
            ],
            [
              -75.19375551477043,
              1.1088749522434505
            ],
            [
              -75.28067026231876,
              1.1720878951625977
            ],
            [
              -75.34555028513654,
              1.2613296969308054
            ],
            [
              -75.36024010162357,
              1.3505714986990132
            ],
            [
              -75.47898278489383,
              1.3431346818849956
            ],
            [
              -75.45939636291111,
              1.444771178343232
            ],
            [
              -75.47898278489383,
              1.6046627398446045
            ],
            [
              -75.40430955108471,
              1.7695121792219881
            ],
            [
              -75.33942952826693,
              1.6616783354187374
            ],
            [
              -75.36880916124102,
              1.5662391863055154
            ],
            [
              -75.32841216590165,
              1.483194731882322
            ],
            [
              -75.26230799170996,
              1.4237001973701835
            ],
            [
              -75.21334193675315,
              1.3443741513539988
            ],
            [
              -75.11785812958738,
              1.34065574294699
            ],
            [
              -75.08113358836977,
              1.273724391620834
            ]
          ]
        ]
      }
    },
    {
      "id": 6,
      "type": "Feature",
      "properties": {
        "DPTO_CCDGO": "18",
        "MPIO_CCDGO": "460",
        "MPIO_CNMBR": "MILÁN",
        "MPIO_CRSLC": "Ordenanza 3 de Noviembre 12 de 1985",
        "MPIO_NAREA": 1220.57599924,
        "MPIO_CCNCT": "18460",
        "MPIO_NANO": 2018,
        "DPTO_CNMBR": "CAQUETÁ",
        "Shape_Leng": 1.8631966501,
        "Shape_Area": 0.0991278187424,
        "codigoDANE": "18460",
        "nombre": "Milán",
        "name": "Milán",
        "subregion": "Sur",
        "departamento": "Caquetá",
        "isCapital": false
      },
      "geometry": {
        "type": "Polygon",
        "coordinates": [
          [
            [
              -75.19497966614435,
              1.0419436009172944
            ],
            [
              -75.22558345049235,
              0.9601386159631042
            ],
            [
              -75.32351556040597,
              0.9241940013620207
            ],
            [
              -75.40063709696294,
              1.030788375696269
            ],
            [
              -75.54141450496377,
              1.087803971270401
            ],
            [
              -75.56834583519002,
              1.2167087960467011
            ],
            [
              -75.56834583519002,
              1.3220637009119462
            ],
            [
              -75.47898278489383,
              1.3431346818849956
            ],
            [
              -75.36024010162357,
              1.3505714986990132
            ],
            [
              -75.34555028513654,
              1.2613296969308054
            ],
            [
              -75.28067026231876,
              1.1720878951625977
            ],
            [
              -75.19375551477043,
              1.1088749522434505
            ],
            [
              -75.19497966614435,
              1.0419436009172944
            ]
          ]
        ]
      }
    },
    {
      "id": 7,
      "type": "Feature",
      "properties": {
        "DPTO_CCDGO": "18",
        "MPIO_CCDGO": "479",
        "MPIO_CNMBR": "MORELIA",
        "MPIO_CRSLC": "Ordenanza 3 de Noviembre 12 de 1985",
        "MPIO_NAREA": 462.479590659,
        "MPIO_CCNCT": "18479",
        "MPIO_NANO": 2018,
        "DPTO_CNMBR": "CAQUETÁ",
        "Shape_Leng": 1.51868831221,
        "Shape_Area": 0.0375535626392,
        "codigoDANE": "18479",
        "nombre": "Morelia",
        "name": "Morelia",
        "subregion": "Sur",
        "departamento": "Caquetá",
        "isCapital": false
      },
      "geometry": {
        "type": "Polygon",
        "coordinates": [
          [
            [
              -75.56834583519002,
              1.3220637009119462
            ],
            [
              -75.56834583519002,
              1.2167087960467011
            ],
            [
              -75.64791567449483,
              1.235300838081745
            ],
            [
              -75.66750209647755,
              1.2947953725938834
            ],
            [
              -75.74217533028667,
              1.3233031703809495
            ],
            [
              -75.737278724791,
              1.4175028500251692
            ],
            [
              -75.77767572013036,
              1.4559264035642583
            ],
            [
              -75.77889987150428,
              1.5823522894025528
            ],
            [
              -75.72993381654747,
              1.4980683655103562
            ],
            [
              -75.66627794510363,
              1.4943499571033474
            ],
            [
              -75.5916047112945,
              1.3914739911761078
            ],
            [
              -75.56834583519002,
              1.3220637009119462
            ]
          ]
        ]
      }
    },
    {
      "id": 8,
      "type": "Feature",
      "properties": {
        "DPTO_CCDGO": "18",
        "MPIO_CCDGO": "610",
        "MPIO_CNMBR": "SAN JOSÉ DEL FRAGUA",
        "MPIO_CRSLC": "Ordenanza 3 de Noviembre 12 de 1985",
        "MPIO_NAREA": 1304.76900624,
        "MPIO_CCNCT": "18610",
        "MPIO_NANO": 2018,
        "DPTO_CNMBR": "CAQUETÁ",
        "Shape_Leng": 2.04083654128,
        "Shape_Area": 0.105893134914,
        "codigoDANE": "18610",
        "nombre": "San José del Fragua",
        "name": "San José del Fragua",
        "subregion": "Sur",
        "departamento": "Caquetá",
        "isCapital": false
      },
      "geometry": {
        "type": "Polygon",
        "coordinates": [
          [
            [
              -76.09962753147138,
              1.563760247367509
            ],
            [
              -76.02740260041008,
              1.5290551022354286
            ],
            [
              -75.99557466468816,
              1.421221258432177
            ],
            [
              -75.90621161439199,
              1.359247784982033
            ],
            [
              -75.99435051331425,
              1.2476955327717736
            ],
            [
              -75.9551776693488,
              1.1820036509146208
            ],
            [
              -76.09840338009745,
              1.1485379752515428
            ],
            [
              -76.13267961856722,
              1.101438135429433
            ],
            [
              -76.28080193481156,
              1.1373827500305165
            ],
            [
              -76.30283665954212,
              1.2365403075507473
            ],
            [
              -76.20368039825459,
              1.3530504376370187
            ],
            [
              -76.18409397627187,
              1.488152609758333
            ],
            [
              -76.14981773780211,
              1.5364919190494462
            ],
            [
              -76.16940415978483,
              1.588549636747567
            ],
            [
              -76.09962753147138,
              1.563760247367509
            ]
          ]
        ]
      }
    },
    {
      "id": 9,
      "type": "Feature",
      "properties": {
        "DPTO_CCDGO": "18",
        "MPIO_CCDGO": "860",
        "MPIO_CNMBR": "VALPARAÍSO",
        "MPIO_CRSLC": "Ordenanza 3 de Noviembre 12 de 1985",
        "MPIO_NAREA": 1330.21001503,
        "MPIO_CCNCT": "18860",
        "MPIO_NANO": 2018,
        "DPTO_CNMBR": "CAQUETÁ",
        "Shape_Leng": 2.31384814926,
        "Shape_Area": 0.108005511138,
        "codigoDANE": "18860",
        "nombre": "Valparaíso",
        "name": "Valparaíso",
        "subregion": "Sur",
        "departamento": "Caquetá",
        "isCapital": false
      },
      "geometry": {
        "type": "Polygon",
        "coordinates": [
          [
            [
              -75.56834583519002,
              1.2167087960467011
            ],
            [
              -75.54141450496377,
              1.087803971270401
            ],
            [
              -75.40063709696294,
              1.030788375696269
            ],
            [
              -75.32351556040597,
              0.9241940013620207
            ],
            [
              -75.46918957390247,
              0.8423890164078296
            ],
            [
              -75.51693147748536,
              0.9613780854321075
            ],
            [
              -75.63934661487738,
              1.0134358031302284
            ],
            [
              -75.82052101821758,
              0.9341097571140438
            ],
            [
              -75.87560783004398,
              1.0270699672892603
            ],
            [
              -75.8584697108091,
              1.0977197270224242
            ],
            [
              -75.81440026134797,
              1.111353891181456
            ],
            [
              -75.81072780722621,
              1.1720878951625977
            ],
            [
              -75.75686514677372,
              1.1894404677286383
            ],
            [
              -75.74217533028667,
              1.3233031703809495
            ],
            [
              -75.66750209647755,
              1.2947953725938834
            ],
            [
              -75.64791567449483,
              1.235300838081745
            ],
            [
              -75.56834583519002,
              1.2167087960467011
            ]
          ]
        ]
      }
    },
    {
      "id": 10,
      "type": "Feature",
      "properties": {
        "DPTO_CCDGO": "18",
        "MPIO_CCDGO": "150",
        "MPIO_CNMBR": "CARTAGENA DEL CHAIRÁ",
        "MPIO_CRSLC": "Ordenanza 3 de Noviembre 12 de 1985",
        "MPIO_NAREA": 12785.6187892,
        "MPIO_CCNCT": "18150",
        "MPIO_NANO": 2018,
        "DPTO_CNMBR": "CAQUETÁ",
        "Shape_Leng": 9.66844075037,
        "Shape_Area": 1.0387266626,
        "codigoDANE": "18150",
        "nombre": "Cartagena del Chairá",
        "name": "Cartagena del Chairá",
        "subregion": "Centro",
        "departamento": "Caquetá",
        "isCapital": false
      },
      "geometry": {
        "type": "Polygon",
        "coordinates": [
          [
            [
              -73.67335950836154,
              0.5362400575641173
            ],
            [
              -73.58154815531752,
              0.48294287039699313
            ],
            [
              -73.48484019677782,
              0.32429077836462383
            ],
            [
              -73.42485677945574,
              0.2561199575694655
            ],
            [
              -73.38813223823813,
              0.2685146522594941
            ],
            [
              -73.2351133164981,
              0.16068080845624344
            ],
            [
              -73.14575026620193,
              0.1309335412001742
            ],
            [
              -73.18492311016738,
              0.06028378146700941
            ],
            [
              -73.32814882091604,
              0.0379733310249577
            ],
            [
              -73.41996017396005,
              0.06772059828102694
            ],
            [
              -73.47994359128215,
              0.11482043810313591
            ],
            [
              -73.54849606822168,
              0.07267847615703804
            ],
            [
              -73.64397987538746,
              0.07267847615703804
            ],
            [
              -73.70885989820522,
              0.10614415182011605
            ],
            [
              -73.7614984072838,
              0.07887582350205236
            ],
            [
              -73.86187881994525,
              0.1693570947392633
            ],
            [
              -74.51190319949687,
              0.1693570947392633
            ],
            [
              -74.555972648958,
              0.33048812570963815
            ],
            [
              -74.64166324513242,
              0.5263243018120942
            ],
            [
              -74.71756063031548,
              0.6242423898633218
            ],
            [
              -74.81549274022909,
              0.6663843518094206
            ],
            [
              -74.85099313007277,
              0.7903312987097086
            ],
            [
              -74.81304443748124,
              0.8485863637528448
            ],
            [
              -74.89995918502959,
              0.9762517190601416
            ],
            [
              -74.95749429960382,
              1.1001986659604306
            ],
            [
              -75.08113358836977,
              1.273724391620834
            ],
            [
              -75.05665056089137,
              1.3877555827691
            ],
            [
              -74.96483920784735,
              1.4435317088742297
            ],
            [
              -74.92933881800366,
              1.4249396668391858
            ],
            [
              -74.82406179984653,
              1.392713460645111
            ],
            [
              -74.7983546209942,
              1.4187423194941715
            ],
            [
              -74.78733725862892,
              1.5674786557745177
            ],
            [
              -74.57311076819289,
              1.2340613686127417
            ],
            [
              -74.47273035553143,
              1.1758063035696065
            ],
            [
              -74.38336730523525,
              1.0989591964914274
            ],
            [
              -74.34174615852197,
              1.0196331504752427
            ],
            [
              -74.24993480547795,
              0.9576596770250987
            ],
            [
              -74.17526157166883,
              0.8820520394159228
            ],
            [
              -74.07610531038128,
              0.839910077469824
            ],
            [
              -74.06998455351169,
              0.7568656230466306
            ],
            [
              -74.02346680130272,
              0.7233999473835526
            ],
            [
              -73.96225923260671,
              0.615566103580302
            ],
            [
              -73.89860336116286,
              0.6329186761463426
            ],
            [
              -73.86922372818877,
              0.5746636111032064
            ],
            [
              -73.80801615949277,
              0.5647478553511833
            ],
            [
              -73.72844632018794,
              0.6217634509253163
            ],
            [
              -73.67335950836154,
              0.5362400575641173
            ]
          ]
        ]
      }
    },
    {
      "id": 11,
      "type": "Feature",
      "properties": {
        "DPTO_CCDGO": "18",
        "MPIO_CCDGO": "753",
        "MPIO_CNMBR": "SAN VICENTE DEL CAGUÁN",
        "MPIO_CRSLC": "Decreto 963 de Marzo 14 de 1950",
        "MPIO_NAREA": 17464.6343677,
        "MPIO_CCNCT": "18753",
        "MPIO_NANO": 2018,
        "DPTO_CNMBR": "CAQUETÁ",
        "Shape_Leng": 10.7991691796,
        "Shape_Area": 1.41932507222,
        "codigoDANE": "18753",
        "nombre": "San Vicente del Caguán",
        "name": "San Vicente del Caguán",
        "subregion": "Norte",
        "departamento": "Caquetá",
        "isCapital": false
      },
      "geometry": {
        "type": "Polygon",
        "coordinates": [
          [
            [
              -74.60004209841912,
              2.635901338055005
            ],
            [
              -74.68083608909787,
              2.5540963531008147
            ],
            [
              -74.67226702948042,
              2.4487414482355696
            ],
            [
              -74.74204365779387,
              2.3235550318662783
            ],
            [
              -74.74326780916779,
              2.270257844699154
            ],
            [
              -74.65023230474986,
              2.2429895163810905
            ],
            [
              -74.59392134154953,
              2.13515567257784
            ],
            [
              -74.64411154788026,
              2.0954926495697475
            ],
            [
              -74.56086925445368,
              1.9628694163864386
            ],
            [
              -74.56331755720153,
              1.8475987557691704
            ],
            [
              -74.47028205278359,
              1.8066962632920749
            ],
            [
              -74.32215973653925,
              1.788104221257032
            ],
            [
              -74.20708950739075,
              1.716214992054864
            ],
            [
              -74.10548494335536,
              1.6914256026748067
            ],
            [
              -73.99408716832863,
              1.6393678849766857
            ],
            [
              -73.91084487490205,
              1.6368889460386793
            ],
            [
              -73.85820636582349,
              1.6083811482516133
            ],
            [
              -73.73946368255324,
              1.6381284155076825
            ],
            [
              -73.65989384324841,
              1.612099556658622
            ],
            [
              -73.6586696918745,
              1.5761549420575385
            ],
            [
              -73.47627113716038,
              1.3617267239200386
            ],
            [
              -73.41383941709046,
              1.245216593833768
            ],
            [
              -73.39302884373382,
              1.1472985057825396
            ],
            [
              -73.32202806404644,
              1.0803671544563844
            ],
            [
              -73.23878577061987,
              1.0320278451652714
            ],
            [
              -73.29142427969843,
              1.0121963336612252
            ],
            [
              -73.37833902724677,
              1.0667329902973526
            ],
            [
              -73.4652537747951,
              1.0444225398553
            ],
            [
              -73.51421982975191,
              0.9836885358741592
            ],
            [
              -73.53625455448247,
              0.8622205279118766
            ],
            [
              -73.56930664157832,
              0.7816550124266888
            ],
            [
              -73.57665154982185,
              0.6961316190654898
            ],
            [
              -73.64275572401354,
              0.6205239814563139
            ],
            [
              -73.67335950836154,
              0.5362400575641173
            ],
            [
              -73.72844632018794,
              0.6217634509253163
            ],
            [
              -73.80801615949277,
              0.5647478553511833
            ],
            [
              -73.86922372818877,
              0.5746636111032064
            ],
            [
              -73.89860336116286,
              0.6329186761463426
            ],
            [
              -73.96225923260671,
              0.615566103580302
            ],
            [
              -74.02346680130272,
              0.7233999473835526
            ],
            [
              -74.06998455351169,
              0.7568656230466306
            ],
            [
              -74.07610531038128,
              0.839910077469824
            ],
            [
              -74.17526157166883,
              0.8820520394159228
            ],
            [
              -74.24993480547795,
              0.9576596770250987
            ],
            [
              -74.34174615852197,
              1.0196331504752427
            ],
            [
              -74.38336730523525,
              1.0989591964914274
            ],
            [
              -74.47273035553143,
              1.1758063035696065
            ],
            [
              -74.57311076819289,
              1.2340613686127417
            ],
            [
              -74.78733725862892,
              1.5674786557745177
            ],
            [
              -74.8105961347334,
              1.6034232703756013
            ],
            [
              -74.79957877236812,
              1.7062992363028409
            ],
            [
              -74.84487237320317,
              1.7509201371869452
            ],
            [
              -74.85833803831629,
              1.8649513283352102
            ],
            [
              -74.9011833364035,
              1.9529536606344156
            ],
            [
              -74.94647693723854,
              2.097971588507753
            ],
            [
              -75.02604677654335,
              2.150029306205874
            ],
            [
              -75.00768450593456,
              2.213242249125021
            ],
            [
              -74.98932223532576,
              2.4289099367315234
            ],
            [
              -75.01502941417807,
              2.4896439407126643
            ],
            [
              -74.98075317570832,
              2.565251578321841
            ],
            [
              -75.05420225814352,
              2.6284645212409874
            ],
            [
              -75.13377209744834,
              2.598717253984918
            ],
            [
              -75.15213436805715,
              2.7090300367261753
            ],
            [
              -75.14478945981362,
              2.7239036703542103
            ],
            [
              -75.07011622600449,
              2.744974651327259
            ],
            [
              -74.9440286344907,
              2.8961899265456115
            ],
            [
              -74.90485579052526,
              2.9581633999957555
            ],
            [
              -74.89873503365565,
              2.96436074734077
            ],
            [
              -74.87914861167293,
              2.913542499111651
            ],
            [
              -74.80325122648989,
              2.935852949553704
            ],
            [
              -74.7616300797766,
              2.8726400066345565
            ],
            [
              -74.6710428781065,
              2.8875136402625907
            ],
            [
              -74.66369796986298,
              2.803229716370395
            ],
            [
              -74.61962852040185,
              2.7524114681412764
            ],
            [
              -74.63676663963673,
              2.7102695061951785
            ],
            [
              -74.60004209841912,
              2.635901338055005
            ]
          ]
        ]
      }
    },
    {
      "id": 12,
      "type": "Feature",
      "properties": {
        "DPTO_CCDGO": "18",
        "MPIO_CCDGO": "756",
        "MPIO_CNMBR": "SOLANO",
        "MPIO_CRSLC": "Ordenanza 3 de Noviembre 12 de 1985",
        "MPIO_NAREA": 42312.7836103,
        "MPIO_CCNCT": "18756",
        "MPIO_NANO": 2018,
        "DPTO_CNMBR": "CAQUETÁ",
        "Shape_Leng": 20.0458589701,
        "Shape_Area": 3.43579026176,
        "codigoDANE": "18756",
        "nombre": "Solano",
        "name": "Solano",
        "subregion": "Sur",
        "departamento": "Caquetá",
        "isCapital": false
      },
      "geometry": {
        "type": "Polygon",
        "coordinates": [
          [
            [
              -72.03299666730847,
              0.6639054128714141
            ],
            [
              -71.98158230960382,
              0.6292002677393338
            ],
            [
              -71.99015136922127,
              0.5659873248201865
            ],
            [
              -71.92894380052525,
              0.5436768743781348
            ],
            [
              -71.92159889228174,
              0.4593929504859382
            ],
            [
              -71.85671886946396,
              0.45567454207892943
            ],
            [
              -71.83223584198555,
              0.3391644119926589
            ],
            [
              -71.76980412191563,
              0.3280091867716326
            ],
            [
              -71.69757919085433,
              0.23752791553442165
            ],
            [
              -71.62657841116696,
              0.21645693456137316
            ],
            [
              -71.58373311307976,
              0.163159747394249
            ],
            [
              -71.44907646194854,
              0.13960982748319406
            ],
            [
              -71.3744032281394,
              0.1743149726152744
            ],
            [
              -71.33523038417395,
              0.15448346111122824
            ],
            [
              -71.29728169158243,
              0.07515741509504359
            ],
            [
              -71.25443639349523,
              0.059044311998006194
            ],
            [
              -71.2715745127301,
              0.035494392086951265
            ],
            [
              -71.43683494820934,
              0.00698659429988524
            ],
            [
              -71.47478364080087,
              -0.011605447735157703
            ],
            [
              -71.54945687460999,
              0.021860227927920306
            ],
            [
              -71.70492409909785,
              -0.06738157384028742
            ],
            [
              -71.73675203481977,
              -0.16406019242251269
            ],
            [
              -71.71104485596746,
              -0.23223101321767148
            ],
            [
              -71.78939054389835,
              -0.27065456675676103
            ],
            [
              -71.99627212609086,
              -0.27685191410177534
            ],
            [
              -72.06237630028255,
              -0.325191223392888
            ],
            [
              -72.14317029096128,
              -0.3475016738349397
            ],
            [
              -72.18356728630066,
              -0.46153286498320556
            ],
            [
              -72.23008503850963,
              -0.4925196017082776
            ],
            [
              -72.24232655224883,
              -0.6053113233875402
            ],
            [
              -72.31699978605795,
              -0.6524111632096496
            ],
            [
              -72.43329416658037,
              -0.5668877698484507
            ],
            [
              -72.5385711847375,
              -0.6772005525897073
            ],
            [
              -72.59243384519,
              -0.6933136556867447
            ],
            [
              -72.74545276693003,
              -0.5606904225034364
            ],
            [
              -72.8776611153134,
              -0.6177060180775689
            ],
            [
              -72.9376445326355,
              -0.6053113233875402
            ],
            [
              -72.99640379858367,
              -0.5334220941853727
            ],
            [
              -73.11269817910609,
              -0.604071853918537
            ],
            [
              -73.20940613764579,
              -0.6239033654225832
            ],
            [
              -73.33549372915957,
              -0.5061537658673094
            ],
            [
              -73.4885126508996,
              -0.5284642163093611
            ],
            [
              -73.57053079295224,
              -0.5160695216193325
            ],
            [
              -73.5803240039436,
              -0.4553355176381908
            ],
            [
              -73.6770319624833,
              -0.42186984197511324
            ],
            [
              -73.8410682465886,
              -0.3983199220640583
            ],
            [
              -73.88024109055405,
              -0.3710515937459946
            ],
            [
              -73.9989837738243,
              -0.34378326542793136
            ],
            [
              -74.10915739747713,
              -0.23594942162468024
            ],
            [
              -74.15689930106002,
              -0.26073881100473795
            ],
            [
              -74.29033180081731,
              -0.1975258680855907
            ],
            [
              -74.35153936951333,
              -0.10704459684837975
            ],
            [
              -74.41152278683542,
              -0.11819982206940605
            ],
            [
              -74.43967826843559,
              -0.07481839065430496
            ],
            [
              -74.54128283247096,
              -0.1206787610074116
            ],
            [
              -74.70409496520234,
              0.03673386155595448
            ],
            [
              -74.66247381848906,
              0.0540864341219951
            ],
            [
              -74.67838778635003,
              0.16068080845624344
            ],
            [
              -74.7371470522982,
              0.20902011774735563
            ],
            [
              -74.84487237320317,
              0.21397799562336672
            ],
            [
              -74.89261427678606,
              0.24868314075544795
            ],
            [
              -74.96483920784735,
              0.24496473234843918
            ],
            [
              -75.01502941417807,
              0.38626425181476787
            ],
            [
              -74.98320147845615,
              0.41229311066382923
            ],
            [
              -75.03339168478688,
              0.48418233986599635
            ],
            [
              -75.19620381751827,
              0.47922446198998436
            ],
            [
              -75.23537666148371,
              0.5659873248201865
            ],
            [
              -75.20722117988355,
              0.6019319394212701
            ],
            [
              -75.2708770513274,
              0.6614264739334086
            ],
            [
              -75.26598044583172,
              0.7258788863215591
            ],
            [
              -75.33820537689301,
              0.7680208482676569
            ],
            [
              -75.42267182169351,
              0.7382735810115877
            ],
            [
              -75.48387939038952,
              0.7828944818956911
            ],
            [
              -75.46918957390247,
              0.8423890164078296
            ],
            [
              -75.32351556040597,
              0.9241940013620207
            ],
            [
              -75.22558345049235,
              0.9601386159631042
            ],
            [
              -75.19497966614435,
              1.0419436009172944
            ],
            [
              -74.89995918502959,
              0.9762517190601416
            ],
            [
              -74.81304443748124,
              0.8485863637528448
            ],
            [
              -74.85099313007277,
              0.7903312987097086
            ],
            [
              -74.81549274022909,
              0.6663843518094206
            ],
            [
              -74.71756063031548,
              0.6242423898633218
            ],
            [
              -74.64166324513242,
              0.5263243018120942
            ],
            [
              -74.555972648958,
              0.33048812570963815
            ],
            [
              -74.51190319949687,
              0.1693570947392633
            ],
            [
              -73.86187881994525,
              0.1693570947392633
            ],
            [
              -73.7614984072838,
              0.07887582350205236
            ],
            [
              -73.70885989820522,
              0.10614415182011605
            ],
            [
              -73.64397987538746,
              0.07267847615703804
            ],
            [
              -73.54849606822168,
              0.07267847615703804
            ],
            [
              -73.47994359128215,
              0.11482043810313591
            ],
            [
              -73.41996017396005,
              0.06772059828102694
            ],
            [
              -73.32814882091604,
              0.0379733310249577
            ],
            [
              -73.18492311016738,
              0.06028378146700941
            ],
            [
              -73.14575026620193,
              0.1309335412001742
            ],
            [
              -73.2351133164981,
              0.16068080845624344
            ],
            [
              -73.38813223823813,
              0.2685146522594941
            ],
            [
              -73.42485677945574,
              0.2561199575694655
            ],
            [
              -73.48484019677782,
              0.32429077836462383
            ],
            [
              -73.58154815531752,
              0.48294287039699313
            ],
            [
              -73.67335950836154,
              0.5362400575641173
            ],
            [
              -73.64275572401354,
              0.6205239814563139
            ],
            [
              -73.57665154982185,
              0.6961316190654898
            ],
            [
              -73.56930664157832,
              0.7816550124266888
            ],
            [
              -73.53625455448247,
              0.8622205279118766
            ],
            [
              -73.51421982975191,
              0.9836885358741592
            ],
            [
              -73.4652537747951,
              1.0444225398553
            ],
            [
              -73.37833902724677,
              1.0667329902973526
            ],
            [
              -73.29142427969843,
              1.0121963336612252
            ],
            [
              -73.23878577061987,
              1.0320278451652714
            ],
            [
              -73.21675104588931,
              0.997322700033191
            ],
            [
              -73.07842194063632,
              0.8944467341059514
            ],
            [
              -73.04536985354048,
              0.9056019593269768
            ],
            [
              -72.85685054195676,
              1.0431830703862977
            ],
            [
              -72.87031620706989,
              1.1460590363135372
            ],
            [
              -72.7258663449473,
              1.1857220593216296
            ],
            [
              -72.65119311113817,
              1.1720878951625977
            ],
            [
              -72.5079674003895,
              1.067972459766355
            ],
            [
              -72.46757040505014,
              1.0840855628633923
            ],
            [
              -72.39901792811061,
              1.002280577909202
            ],
            [
              -72.26925788247507,
              0.763062970391645
            ],
            [
              -72.19091219454418,
              0.7271183557905614
            ],
            [
              -72.08073857089136,
              0.7048079053485097
            ],
            [
              -72.03299666730847,
              0.6639054128714141
            ]
          ]
        ]
      }
    },
    {
      "id": 13,
      "type": "Feature",
      "properties": {
        "DPTO_CCDGO": "18",
        "MPIO_CCDGO": "785",
        "MPIO_CNMBR": "SOLITA",
        "MPIO_CRSLC": "ORD 28 DE NOVIEMBRE 27 DE 1996",
        "MPIO_NAREA": 476.931472859,
        "MPIO_CCNCT": "18785",
        "MPIO_NANO": 2018,
        "DPTO_CNMBR": "CAQUETÁ",
        "Shape_Leng": 1.24610606181,
        "Shape_Area": 0.0387220738657,
        "codigoDANE": "18785",
        "nombre": "Solita",
        "name": "Solita",
        "subregion": "Sur",
        "departamento": "Caquetá",
        "isCapital": false
      },
      "geometry": {
        "type": "Polygon",
        "coordinates": [
          [
            [
              -75.46918957390247,
              0.8423890164078296
            ],
            [
              -75.48387939038952,
              0.7828944818956911
            ],
            [
              -75.537742050842,
              0.8262759133107922
            ],
            [
              -75.60507037640761,
              0.8374311385318185
            ],
            [
              -75.63689831212955,
              0.8770941615399108
            ],
            [
              -75.75808929814764,
              0.8374311385318185
            ],
            [
              -75.8095036558523,
              0.8956862035749538
            ],
            [
              -75.82052101821758,
              0.9341097571140438
            ],
            [
              -75.63934661487738,
              1.0134358031302284
            ],
            [
              -75.51693147748536,
              0.9613780854321075
            ],
            [
              -75.46918957390247,
              0.8423890164078296
            ]
          ]
        ]
      }
    },
    {
      "id": 14,
      "type": "Feature",
      "properties": {
        "DPTO_CCDGO": "18",
        "MPIO_CCDGO": "205",
        "MPIO_CNMBR": "CURILLO",
        "MPIO_CRSLC": "Ordenanza 3 de Noviembre 12 de 1985",
        "MPIO_NAREA": 403.358249431,
        "MPIO_CCNCT": "18205",
        "MPIO_NANO": 2018,
        "DPTO_CNMBR": "CAQUETÁ",
        "Shape_Leng": 1.58492599361,
        "Shape_Area": 0.0327393194917,
        "codigoDANE": "18205",
        "nombre": "Curillo",
        "name": "Curillo",
        "subregion": "Sur",
        "departamento": "Caquetá",
        "isCapital": false
      },
      "geometry": {
        "type": "Polygon",
        "coordinates": [
          [
            [
              -75.81440026134797,
              1.111353891181456
            ],
            [
              -75.8584697108091,
              1.0977197270224242
            ],
            [
              -75.87560783004398,
              1.0270699672892603
            ],
            [
              -75.82052101821758,
              0.9341097571140438
            ],
            [
              -75.8095036558523,
              0.8956862035749538
            ],
            [
              -75.85602140806125,
              0.8845309783539284
            ],
            [
              -75.97598824270544,
              1.0617751124213406
            ],
            [
              -76.08493771498433,
              1.0580567040143318
            ],
            [
              -76.13267961856722,
              1.101438135429433
            ],
            [
              -76.09840338009745,
              1.1485379752515428
            ],
            [
              -75.9551776693488,
              1.1820036509146208
            ],
            [
              -75.92212558225295,
              1.1076354827744472
            ],
            [
              -75.81440026134797,
              1.111353891181456
            ]
          ]
        ]
      }
    },
    {
      "id": 15,
      "type": "Feature",
      "properties": {
        "DPTO_CCDGO": "18",
        "MPIO_CCDGO": "592",
        "MPIO_CNMBR": "PUERTO RICO",
        "MPIO_CRSLC": "Decreto 1678 de Septiembretiembre 7 de 1967",
        "MPIO_NAREA": 4146.39715969,
        "MPIO_CCNCT": "18592",
        "MPIO_NANO": 2018,
        "DPTO_CNMBR": "CAQUETÁ",
        "Shape_Leng": 4.26444951799,
        "Shape_Area": 0.336961096122,
        "codigoDANE": "18592",
        "nombre": "Puerto Rico",
        "name": "Puerto Rico",
        "subregion": "Norte",
        "departamento": "Caquetá",
        "isCapital": false
      },
      "geometry": {
        "type": "Polygon",
        "coordinates": [
          [
            [
              -74.78733725862892,
              1.5674786557745177
            ],
            [
              -74.7983546209942,
              1.4187423194941715
            ],
            [
              -74.82406179984653,
              1.392713460645111
            ],
            [
              -74.92933881800366,
              1.4249396668391858
            ],
            [
              -74.93301127212543,
              1.5042657128553705
            ],
            [
              -75.0223743224216,
              1.6468047017907024
            ],
            [
              -75.05420225814352,
              1.7323280951519013
            ],
            [
              -75.17784154690946,
              1.7100176447098496
            ],
            [
              -75.26108384033604,
              1.7943015686020463
            ],
            [
              -75.31494650078852,
              1.801738385416063
            ],
            [
              -75.29780838155365,
              2.054590157092652
            ],
            [
              -75.25741138621427,
              2.1376346115158453
            ],
            [
              -75.28679101918836,
              2.2714973141681565
            ],
            [
              -75.3492227392583,
              2.3235550318662783
            ],
            [
              -75.19497966614435,
              2.511954391154717
            ],
            [
              -75.13377209744834,
              2.598717253984918
            ],
            [
              -75.05420225814352,
              2.6284645212409874
            ],
            [
              -74.98075317570832,
              2.565251578321841
            ],
            [
              -75.01502941417807,
              2.4896439407126643
            ],
            [
              -74.98932223532576,
              2.4289099367315234
            ],
            [
              -75.00768450593456,
              2.213242249125021
            ],
            [
              -75.02604677654335,
              2.150029306205874
            ],
            [
              -74.94647693723854,
              2.097971588507753
            ],
            [
              -74.9011833364035,
              1.9529536606344156
            ],
            [
              -74.85833803831629,
              1.8649513283352102
            ],
            [
              -74.84487237320317,
              1.7509201371869452
            ],
            [
              -74.79957877236812,
              1.7062992363028409
            ],
            [
              -74.8105961347334,
              1.6034232703756013
            ],
            [
              -74.78733725862892,
              1.5674786557745177
            ]
          ]
        ]
      }
    }
  ]
}